<?xml version="1.0" encoding="UTF-8"?>
<ndm xmlns:xsi="http://www.w3.org/2001/XMLSchema-instance" xsi:noNamespaceSchemaLocation="https://sanaregistry.org/r/ndmxml_unqualified/ndmxml-2.0.0-master-2.0.xsd">
<omm id="CCSDS_OMM_VERS" version="2.0">
<header><CREATION_DATE/><ORIGINATOR/></header><body><segment><metadata><OBJECT_NAME>IRIDIUM 57</OBJECT_NAME><OBJECT_ID>1998-019B</OBJECT_ID><CENTER_NAME>EARTH</CENTER_NAME><REF_FRAME>TEME</REF_FRAME><TIME_SYSTEM>UTC</TIME_SYSTEM><MEAN_ELEMENT_THEORY>SGP4</MEAN_ELEMENT_THEORY></metadata><data><meanElements><EPOCH>2024-11-01T13:12:32.009472</EPOCH><MEAN_MOTION>14.35536993</MEAN_MOTION><ECCENTRICITY>.000236</ECCENTRICITY><INCLINATION>86.3970</INCLINATION><RA_OF_ASC_NODE>240.5476</RA_OF_ASC_NODE><ARG_OF_PERICENTER>85.7213</ARG_OF_PERICENTER><MEAN_ANOMALY>274.4253</MEAN_ANOMALY></meanElements><tleParameters><EPHEMERIS_TYPE>0</EPHEMERIS_TYPE><CLASSIFICATION_TYPE>U</CLASSIFICATION_TYPE><NORAD_CAT_ID>25273</NORAD_CAT_ID><ELEMENT_SET_NO>999</ELEMENT_SET_NO><REV_AT_EPOCH>39212</REV_AT_EPOCH><BSTAR>.6772E-3</BSTAR><MEAN_MOTION_DOT>.1967E-4</MEAN_MOTION_DOT><MEAN_MOTION_DDOT>0</MEAN_MOTION_DDOT></tleParameters></data></segment></body></omm>
<omm id="CCSDS_OMM_VERS" version="2.0">
<header><CREATION_DATE/><ORIGINATOR/></header><body><segment><metadata><OBJECT_NAME>IRIDIUM 63</OBJECT_NAME><OBJECT_ID>1998-021B</OBJECT_ID><CENTER_NAME>EARTH</CENTER_NAME><REF_FRAME>TEME</REF_FRAME><TIME_SYSTEM>UTC</TIME_SYSTEM><MEAN_ELEMENT_THEORY>SGP4</MEAN_ELEMENT_THEORY></metadata><data><meanElements><EPOCH>2024-11-01T14:07:32.512800</EPOCH><MEAN_MOTION>14.36143988</MEAN_MOTION><ECCENTRICITY>.0001913</ECCENTRICITY><INCLINATION>86.4035</INCLINATION><RA_OF_ASC_NODE>177.5251</RA_OF_ASC_NODE><ARG_OF_PERICENTER>80.8032</ARG_OF_PERICENTER><MEAN_ANOMALY>279.3381</MEAN_ANOMALY></meanElements><tleParameters><EPHEMERIS_TYPE>0</EPHEMERIS_TYPE><CLASSIFICATION_TYPE>U</CLASSIFICATION_TYPE><NORAD_CAT_ID>25286</NORAD_CAT_ID><ELEMENT_SET_NO>999</ELEMENT_SET_NO><REV_AT_EPOCH>39117</REV_AT_EPOCH><BSTAR>.59637E-3</BSTAR><MEAN_MOTION_DOT>.1756E-4</MEAN_MOTION_DOT><MEAN_MOTION_DDOT>0</MEAN_MOTION_DDOT></tleParameters></data></segment></body></omm>
<omm id="CCSDS_OMM_VERS" version="2.0">
<header><CREATION_DATE/><ORIGINATOR/></header><body><segment><metadata><OBJECT_NAME>IRIDIUM 69</OBJECT_NAME><OBJECT_ID>1998-026A</OBJECT_ID><CENTER_NAME>EARTH</CENTER_NAME><REF_FRAME>TEME</REF_FRAME><TIME_SYSTEM>UTC</TIME_SYSTEM><MEAN_ELEMENT_THEORY>SGP4</MEAN_ELEMENT_THEORY></metadata><data><meanElements><EPOCH>2024-11-01T14:21:12.142080</EPOCH><MEAN_MOTION>14.40469029</MEAN_MOTION><ECCENTRICITY>.0004394</ECCENTRICITY><INCLINATION>86.4040</INCLINATION><RA_OF_ASC_NODE>191.4742</RA_OF_ASC_NODE><ARG_OF_PERICENTER>67.6068</ARG_OF_PERICENTER><MEAN_ANOMALY>292.5597</MEAN_ANOMALY></meanElements><tleParameters><EPHEMERIS_TYPE>0</EPHEMERIS_TYPE><CLASSIFICATION_TYPE>U</CLASSIFICATION_TYPE><NORAD_CAT_ID>25319</NORAD_CAT_ID><ELEMENT_SET_NO>999</ELEMENT_SET_NO><REV_AT_EPOCH>39029</REV_AT_EPOCH><BSTAR>.80996E-3</BSTAR><MEAN_MOTION_DOT>.2593E-4</MEAN_MOTION_DOT><MEAN_MOTION_DDOT>0</MEAN_MOTION_DDOT></tleParameters></data></segment></body></omm>
<omm id="CCSDS_OMM_VERS" version="2.0">
<header><CREATION_DATE/><ORIGINATOR/></header><body><segment><metadata><OBJECT_NAME>IRIDIUM 71</OBJECT_NAME><OBJECT_ID>1998-026B</OBJECT_ID><CENTER_NAME>EARTH</CENTER_NAME><REF_FRAME>TEME</REF_FRAME><TIME_SYSTEM>UTC</TIME_SYSTEM><MEAN_ELEMENT_THEORY>SGP4</MEAN_ELEMENT_THEORY></metadata><data><meanElements><EPOCH>2024-11-01T10:20:08.006208</EPOCH><MEAN_MOTION>14.40723530</MEAN_MOTION><ECCENTRICITY>.000407</ECCENTRICITY><INCLINATION>86.4036</INCLINATION><RA_OF_ASC_NODE>186.2849</RA_OF_ASC_NODE><ARG_OF_PERICENTER>100.6040</ARG_OF_PERICENTER><MEAN_ANOMALY>259.5618</MEAN_ANOMALY></meanElements><tleParameters><EPHEMERIS_TYPE>0</EPHEMERIS_TYPE><CLASSIFICATION_TYPE>U</CLASSIFICATION_TYPE><NORAD_CAT_ID>25320</NORAD_CAT_ID><ELEMENT_SET_NO>999</ELEMENT_SET_NO><REV_AT_EPOCH>39079</REV_AT_EPOCH><BSTAR>.66436E-3</BSTAR><MEAN_MOTION_DOT>.2142E-4</MEAN_MOTION_DOT><MEAN_MOTION_DDOT>0</MEAN_MOTION_DDOT></tleParameters></data></segment></body></omm>
<omm id="CCSDS_OMM_VERS" version="2.0">
<header><CREATION_DATE/><ORIGINATOR/></header><body><segment><metadata><OBJECT_NAME>IRIDIUM 73</OBJECT_NAME><OBJECT_ID>1998-032C</OBJECT_ID><CENTER_NAME>EARTH</CENTER_NAME><REF_FRAME>TEME</REF_FRAME><TIME_SYSTEM>UTC</TIME_SYSTEM><MEAN_ELEMENT_THEORY>SGP4</MEAN_ELEMENT_THEORY></metadata><data><meanElements><EPOCH>2024-11-01T13:20:37.467744</EPOCH><MEAN_MOTION>14.51066801</MEAN_MOTION><ECCENTRICITY>.0002651</ECCENTRICITY><INCLINATION>86.4407</INCLINATION><RA_OF_ASC_NODE>143.4649</RA_OF_ASC_NODE><ARG_OF_PERICENTER>76.9182</ARG_OF_PERICENTER><MEAN_ANOMALY>283.2319</MEAN_ANOMALY></meanElements><tleParameters><EPHEMERIS_TYPE>0</EPHEMERIS_TYPE><CLASSIFICATION_TYPE>U</CLASSIFICATION_TYPE><NORAD_CAT_ID>25344</NORAD_CAT_ID><ELEMENT_SET_NO>999</ELEMENT_SET_NO><REV_AT_EPOCH>39754</REV_AT_EPOCH><BSTAR>.64746E-3</BSTAR><MEAN_MOTION_DOT>.2583E-4</MEAN_MOTION_DOT><MEAN_MOTION_DDOT>0</MEAN_MOTION_DDOT></tleParameters></data></segment></body></omm>
<omm id="CCSDS_OMM_VERS" version="2.0">
<header><CREATION_DATE/><ORIGINATOR/></header><body><segment><metadata><OBJECT_NAME>IRIDIUM 82</OBJECT_NAME><OBJECT_ID>1998-051A</OBJECT_ID><CENTER_NAME>EARTH</CENTER_NAME><REF_FRAME>TEME</REF_FRAME><TIME_SYSTEM>UTC</TIME_SYSTEM><MEAN_ELEMENT_THEORY>SGP4</MEAN_ELEMENT_THEORY></metadata><data><meanElements><EPOCH>2024-11-01T11:21:23.673024</EPOCH><MEAN_MOTION>15.17359980</MEAN_MOTION><ECCENTRICITY>.0116524</ECCENTRICITY><INCLINATION>86.3772</INCLINATION><RA_OF_ASC_NODE>220.3002</RA_OF_ASC_NODE><ARG_OF_PERICENTER>73.3219</ARG_OF_PERICENTER><MEAN_ANOMALY>288.0774</MEAN_ANOMALY></meanElements><tleParameters><EPHEMERIS_TYPE>0</EPHEMERIS_TYPE><CLASSIFICATION_TYPE>U</CLASSIFICATION_TYPE><NORAD_CAT_ID>25467</NORAD_CAT_ID><ELEMENT_SET_NO>999</ELEMENT_SET_NO><REV_AT_EPOCH>38925</REV_AT_EPOCH><BSTAR>.18335E-2</BSTAR><MEAN_MOTION_DOT>.43887E-3</MEAN_MOTION_DOT><MEAN_MOTION_DDOT>0</MEAN_MOTION_DDOT></tleParameters></data></segment></body></omm>
</ndm>
