IRIDIUM 57              
1 25273U 98019B   24306.55037048  .00001967  00000+0  67720-3 0  9990
2 25273  86.3970 240.5476 0002360  85.7213 274.4253 14.35536993392121
IRIDIUM 63              
1 25286U 98021B   24306.58857075  .00001756  00000+0  59637-3 0  9994
2 25286  86.4035 177.5251 0001913  80.8032 279.3381 14.36143988391175
IRIDIUM 69              
1 25319U 98026A   24306.59805720  .00002593  00000+0  80996-3 0  9999
2 25319  86.4040 191.4742 0004394  67.6068 292.5597 14.40469029390296
IRIDIUM 71              
1 25320U 98026B   24306.43064822  .00002142  00000+0  66436-3 0  9997
2 25320  86.4036 186.2849 0004070 100.6040 259.5618 14.40723530390794
IRIDIUM 73              
1 25344U 98032C   24306.55598921  .00002583  00000+0  64746-3 0  9996
2 25344  86.4407 143.4649 0002651  76.9182 283.2319 14.51066801397545
IRIDIUM 82              
1 25467U 98051A   24306.47319066  .00043887  00000+0  18335-2 0  9999
2 25467  86.3772 220.3002 0116524  73.3219 288.0774 15.17359980389253
